[{"OBJECT_NAME":"STARLINK-34863","OBJECT_ID":"2025-243P","EPOCH":"2026-03-09T18:26:11.720544","MEAN_MOTION":15.30197257,"ECCENTRICITY":7.992e-5,"INCLINATION":53.1585,"RA_OF_ASC_NODE":245.0418,"ARG_OF_PERICENTER":71.4702,"MEAN_ANOMALY":288.6386,"EPHEMERIS_TYPE":0,"CLASSIFICATION_TYPE":"U","NORAD_CAT_ID":66190,"ELEMENT_SET_NO":999,"REV_AT_EPOCH":2066,"BSTAR":0.00098701247,"MEAN_MOTION_DOT":0.00028985,"MEAN_MOTION_DDOT":0},{"OBJECT_NAME":"COSMOS 1953","OBJECT_ID":"1988-050A","EPOCH":"2026-03-09T18:09:26.993952","MEAN_MOTION":15.28528086,"ECCENTRICITY":0.00124769,"INCLINATION":82.5105,"RA_OF_ASC_NODE":158.18,"ARG_OF_PERICENTER":122.2454,"MEAN_ANOMALY":237.9996,"EPHEMERIS_TYPE":0,"CLASSIFICATION_TYPE":"U","NORAD_CAT_ID":19210,"ELEMENT_SET_NO":999,"REV_AT_EPOCH":3779,"BSTAR":0.00029210954,"MEAN_MOTION_DOT":8.158e-5,"MEAN_MOTION_DDOT":0}]
